[
    {
        "OBJECT_NAME": "COSMOS 2381 [GLONASS]",
        "OBJECT_ID": "2001-053B",
        "EPOCH": "2026-07-07T06:33:46.232064",
        "MEAN_MOTION": 2.13103695,
        "ECCENTRICITY": 0.00452121,
        "INCLINATION": 64.1021,
        "RA_OF_ASC_NODE": 56.7601,
        "ARG_OF_PERICENTER": 228.6125,
        "MEAN_ANOMALY": 317.2982,
        "EPHEMERIS_TYPE": 0,
        "CLASSIFICATION_TYPE": "U",
        "NORAD_CAT_ID": 26988,
        "ELEMENT_SET_NO": 999,
        "REV_AT_EPOCH": 19145,
        "BSTAR": 0,
        "MEAN_MOTION_DOT": -2.8e-07,
        "MEAN_MOTION_DDOT": 0
    },
    {
        "OBJECT_NAME": "COSMOS 2380 [GLONASS]",
        "OBJECT_ID": "2001-053C",
        "EPOCH": "2026-07-08T10:15:38.648160",
        "MEAN_MOTION": 2.13102703,
        "ECCENTRICITY": 0.00069714,
        "INCLINATION": 64.0965,
        "RA_OF_ASC_NODE": 56.6701,
        "ARG_OF_PERICENTER": 46.2544,
        "MEAN_ANOMALY": 130.8022,
        "EPHEMERIS_TYPE": 0,
        "CLASSIFICATION_TYPE": "U",
        "NORAD_CAT_ID": 26989,
        "ELEMENT_SET_NO": 999,
        "REV_AT_EPOCH": 19146,
        "BSTAR": 0,
        "MEAN_MOTION_DOT": -2.8e-07,
        "MEAN_MOTION_DDOT": 0
    },
    {
        "OBJECT_NAME": "COSMOS 2394 [GLONASS]",
        "OBJECT_ID": "2002-060A",
        "EPOCH": "2026-07-09T04:19:58.564416",
        "MEAN_MOTION": 2.13102404,
        "ECCENTRICITY": 9.804e-05,
        "INCLINATION": 65.414,
        "RA_OF_ASC_NODE": 314.9129,
        "ARG_OF_PERICENTER": 321.1424,
        "MEAN_ANOMALY": 38.8578,
        "EPHEMERIS_TYPE": 0,
        "CLASSIFICATION_TYPE": "U",
        "NORAD_CAT_ID": 27617,
        "ELEMENT_SET_NO": 999,
        "REV_AT_EPOCH": 18319,
        "BSTAR": 0,
        "MEAN_MOTION_DOT": -5.7e-07,
        "MEAN_MOTION_DDOT": 0
    },
    {
        "OBJECT_NAME": "COSMOS 2396 [GLONASS]",
        "OBJECT_ID": "2002-060B",
        "EPOCH": "2026-07-04T10:21:57.919104",
        "MEAN_MOTION": 2.13099937,
        "ECCENTRICITY": 0.000328,
        "INCLINATION": 65.4198,
        "RA_OF_ASC_NODE": 315.0705,
        "ARG_OF_PERICENTER": 166.1576,
        "MEAN_ANOMALY": 195.1195,
        "EPHEMERIS_TYPE": 0,
        "CLASSIFICATION_TYPE": "U",
        "NORAD_CAT_ID": 27618,
        "ELEMENT_SET_NO": 999,
        "REV_AT_EPOCH": 18298,
        "BSTAR": 0,
        "MEAN_MOTION_DOT": -4.4e-07,
        "MEAN_MOTION_DDOT": 0
    },
    {
        "OBJECT_NAME": "COSMOS 2395 [GLONASS]",
        "OBJECT_ID": "2002-060C",
        "EPOCH": "2026-07-07T16:10:46.967808",
        "MEAN_MOTION": 2.13103474,
        "ECCENTRICITY": 0.00125229,
        "INCLINATION": 65.4307,
        "RA_OF_ASC_NODE": 315.1005,
        "ARG_OF_PERICENTER": 244.2091,
        "MEAN_ANOMALY": 114.2425,
        "EPHEMERIS_TYPE": 0,
        "CLASSIFICATION_TYPE": "U",
        "NORAD_CAT_ID": 27619,
        "ELEMENT_SET_NO": 999,
        "REV_AT_EPOCH": 18307,
        "BSTAR": 0,
        "MEAN_MOTION_DOT": -5e-07,
        "MEAN_MOTION_DDOT": 0
    },
    {
        "OBJECT_NAME": "COSMOS 2404 [GLONASS-M]",
        "OBJECT_ID": "2003-056A",
        "EPOCH": "2026-07-08T09:25:29.786304",
        "MEAN_MOTION": 2.13088244,
        "ECCENTRICITY": 0.00502649,
        "INCLINATION": 64.2694,
        "RA_OF_ASC_NODE": 61.3357,
        "ARG_OF_PERICENTER": 69.4518,
        "MEAN_ANOMALY": 112.3529,
        "EPHEMERIS_TYPE": 0,
        "CLASSIFICATION_TYPE": "U",
        "NORAD_CAT_ID": 28112,
        "ELEMENT_SET_NO": 999,
        "REV_AT_EPOCH": 17567,
        "BSTAR": 0,
        "MEAN_MOTION_DOT": -2.7e-07,
        "MEAN_MOTION_DDOT": 0
    },
    {
        "OBJECT_NAME": "COSMOS 2402 [GLONASS]",
        "OBJECT_ID": "2003-056B",
        "EPOCH": "2026-07-08T03:13:05.581632",
        "MEAN_MOTION": 2.13104927,
        "ECCENTRICITY": 0.00514571,
        "INCLINATION": 64.2845,
        "RA_OF_ASC_NODE": 61.4565,
        "ARG_OF_PERICENTER": 72.4196,
        "MEAN_ANOMALY": 102.0164,
        "EPHEMERIS_TYPE": 0,
        "CLASSIFICATION_TYPE": "U",
        "NORAD_CAT_ID": 28113,
        "ELEMENT_SET_NO": 999,
        "REV_AT_EPOCH": 17569,
        "BSTAR": 0,
        "MEAN_MOTION_DOT": -2.7e-07,
        "MEAN_MOTION_DDOT": 0
    },
    {
        "OBJECT_NAME": "COSMOS 2403 [GLONASS]",
        "OBJECT_ID": "2003-056C",
        "EPOCH": "2026-07-08T06:13:30.598752",
        "MEAN_MOTION": 2.13104494,
        "ECCENTRICITY": 0.00618416,
        "INCLINATION": 64.2883,
        "RA_OF_ASC_NODE": 61.5053,
        "ARG_OF_PERICENTER": 63.3934,
        "MEAN_ANOMALY": 115.1689,
        "EPHEMERIS_TYPE": 0,
        "CLASSIFICATION_TYPE": "U",
        "NORAD_CAT_ID": 28114,
        "ELEMENT_SET_NO": 999,
        "REV_AT_EPOCH": 17569,
        "BSTAR": 0,
        "MEAN_MOTION_DOT": -2.7e-07,
        "MEAN_MOTION_DDOT": 0
    },
    {
        "OBJECT_NAME": "COSMOS 2411 [GLONASS]",
        "OBJECT_ID": "2004-053A",
        "EPOCH": "2026-07-09T23:43:48.001728",
        "MEAN_MOTION": 2.13103406,
        "ECCENTRICITY": 0.00046992,
        "INCLINATION": 64.2274,
        "RA_OF_ASC_NODE": 59.4404,
        "ARG_OF_PERICENTER": 229.9513,
        "MEAN_ANOMALY": 308.239,
        "EPHEMERIS_TYPE": 0,
        "CLASSIFICATION_TYPE": "U",
        "NORAD_CAT_ID": 28508,
        "ELEMENT_SET_NO": 999,
        "REV_AT_EPOCH": 16761,
        "BSTAR": 0,
        "MEAN_MOTION_DOT": -2.5e-07,
        "MEAN_MOTION_DDOT": 0
    },
    {
        "OBJECT_NAME": "COSMOS 2413 [GLONASS-M]",
        "OBJECT_ID": "2004-053B",
        "EPOCH": "2026-07-09T13:12:38.513664",
        "MEAN_MOTION": 2.13096774,
        "ECCENTRICITY": 0.00030987,
        "INCLINATION": 64.224,
        "RA_OF_ASC_NODE": 59.4009,
        "ARG_OF_PERICENTER": 248.6502,
        "MEAN_ANOMALY": 290.2189,
        "EPHEMERIS_TYPE": 0,
        "CLASSIFICATION_TYPE": "U",
        "NORAD_CAT_ID": 28509,
        "ELEMENT_SET_NO": 999,
        "REV_AT_EPOCH": 16759,
        "BSTAR": 0,
        "MEAN_MOTION_DOT": -2.6e-07,
        "MEAN_MOTION_DDOT": 0
    },
    {
        "OBJECT_NAME": "COSMOS 2412 [GLONASS]",
        "OBJECT_ID": "2004-053C",
        "EPOCH": "2026-07-05T17:32:20.611968",
        "MEAN_MOTION": 2.1310314,
        "ECCENTRICITY": 0.00061556,
        "INCLINATION": 64.2295,
        "RA_OF_ASC_NODE": 59.6658,
        "ARG_OF_PERICENTER": 240.584,
        "MEAN_ANOMALY": 298.2781,
        "EPHEMERIS_TYPE": 0,
        "CLASSIFICATION_TYPE": "U",
        "NORAD_CAT_ID": 28510,
        "ELEMENT_SET_NO": 999,
        "REV_AT_EPOCH": 16751,
        "BSTAR": 0,
        "MEAN_MOTION_DOT": -2.3e-07,
        "MEAN_MOTION_DDOT": 0
    },
    {
        "OBJECT_NAME": "COSMOS 2419 [GLONASS-M]",
        "OBJECT_ID": "2005-050A",
        "EPOCH": "2026-07-08T09:04:25.180608",
        "MEAN_MOTION": 2.13108289,
        "ECCENTRICITY": 0.0013373,
        "INCLINATION": 65.5562,
        "RA_OF_ASC_NODE": 315.3913,
        "ARG_OF_PERICENTER": 334.2831,
        "MEAN_ANOMALY": 86.082,
        "EPHEMERIS_TYPE": 0,
        "CLASSIFICATION_TYPE": "U",
        "NORAD_CAT_ID": 28915,
        "ELEMENT_SET_NO": 999,
        "REV_AT_EPOCH": 15982,
        "BSTAR": 0,
        "MEAN_MOTION_DOT": -5.3e-07,
        "MEAN_MOTION_DDOT": 0
    },
    {
        "OBJECT_NAME": "COSMOS 2418 [GLONASS-M]",
        "OBJECT_ID": "2005-050B",
        "EPOCH": "2026-07-05T05:38:38.549760",
        "MEAN_MOTION": 2.13106377,
        "ECCENTRICITY": 0.0011115,
        "INCLINATION": 65.5814,
        "RA_OF_ASC_NODE": 315.6756,
        "ARG_OF_PERICENTER": 279.1403,
        "MEAN_ANOMALY": 258.7295,
        "EPHEMERIS_TYPE": 0,
        "CLASSIFICATION_TYPE": "U",
        "NORAD_CAT_ID": 28916,
        "ELEMENT_SET_NO": 999,
        "REV_AT_EPOCH": 15964,
        "BSTAR": 0,
        "MEAN_MOTION_DOT": -4.4e-07,
        "MEAN_MOTION_DDOT": 0
    },
    {
        "OBJECT_NAME": "COSMOS 2417 [GLONASS]",
        "OBJECT_ID": "2005-050C",
        "EPOCH": "2026-07-10T01:40:01.284384",
        "MEAN_MOTION": 2.13104269,
        "ECCENTRICITY": 0.0016051,
        "INCLINATION": 65.5578,
        "RA_OF_ASC_NODE": 315.3676,
        "ARG_OF_PERICENTER": 97.3318,
        "MEAN_ANOMALY": 262.8121,
        "EPHEMERIS_TYPE": 0,
        "CLASSIFICATION_TYPE": "U",
        "NORAD_CAT_ID": 28917,
        "ELEMENT_SET_NO": 999,
        "REV_AT_EPOCH": 15971,
        "BSTAR": 0,
        "MEAN_MOTION_DOT": -6e-07,
        "MEAN_MOTION_DDOT": 0
    },
    {
        "OBJECT_NAME": "COSMOS 2425 [GLONASS-M]",
        "OBJECT_ID": "2006-062A",
        "EPOCH": "2026-07-10T03:55:51.024000",
        "MEAN_MOTION": 2.13117674,
        "ECCENTRICITY": 0.00229902,
        "INCLINATION": 64.6952,
        "RA_OF_ASC_NODE": 193.5195,
        "ARG_OF_PERICENTER": 351.48,
        "MEAN_ANOMALY": 109.4691,
        "EPHEMERIS_TYPE": 0,
        "CLASSIFICATION_TYPE": "U",
        "NORAD_CAT_ID": 29670,
        "ELEMENT_SET_NO": 999,
        "REV_AT_EPOCH": 15207,
        "BSTAR": 0,
        "MEAN_MOTION_DOT": 1.24e-06,
        "MEAN_MOTION_DDOT": 0
    },
    {
        "OBJECT_NAME": "COSMOS 2426 [GLONASS-M]",
        "OBJECT_ID": "2006-062B",
        "EPOCH": "2026-07-10T05:46:47.483040",
        "MEAN_MOTION": 2.1296382,
        "ECCENTRICITY": 0.00216376,
        "INCLINATION": 64.7022,
        "RA_OF_ASC_NODE": 193.7759,
        "ARG_OF_PERICENTER": 184.8714,
        "MEAN_ANOMALY": 260.3814,
        "EPHEMERIS_TYPE": 0,
        "CLASSIFICATION_TYPE": "U",
        "NORAD_CAT_ID": 29671,
        "ELEMENT_SET_NO": 999,
        "REV_AT_EPOCH": 15204,
        "BSTAR": 0,
        "MEAN_MOTION_DOT": 1.23e-06,
        "MEAN_MOTION_DDOT": 0
    }
]